[{"OBJECT_NAME":"GSAT0218 (GALILEO 22)","OBJECT_ID":"2017-079D","EPOCH":"2026-03-04T17:59:13.370784","MEAN_MOTION":1.70474529,"ECCENTRICITY":0.00019211,"INCLINATION":55.1048,"RA_OF_ASC_NODE":224.373,"ARG_OF_PERICENTER":303.9467,"MEAN_ANOMALY":55.9718,"EPHEMERIS_TYPE":0,"CLASSIFICATION_TYPE":"U","NORAD_CAT_ID":43058,"ELEMENT_SET_NO":999,"REV_AT_EPOCH":5123,"BSTAR":0,"MEAN_MOTION_DOT":1.3e-7,"MEAN_MOTION_DDOT":0},{"OBJECT_NAME":"GOES 17","OBJECT_ID":"2018-022A","EPOCH":"2026-03-05T05:00:54.462816","MEAN_MOTION":1.00270294,"ECCENTRICITY":0.00022041,"INCLINATION":0.6702,"RA_OF_ASC_NODE":87.5386,"ARG_OF_PERICENTER":223.0782,"MEAN_ANOMALY":198.0411,"EPHEMERIS_TYPE":0,"CLASSIFICATION_TYPE":"U","NORAD_CAT_ID":43226,"ELEMENT_SET_NO":999,"REV_AT_EPOCH":2938,"BSTAR":0,"MEAN_MOTION_DOT":-1.91e-6,"MEAN_MOTION_DDOT":0},{"OBJECT_NAME":"GSAT0221 (GALILEO 25)","OBJECT_ID":"2018-060A","EPOCH":"2026-02-28T13:07:14.911104","MEAN_MOTION":1.70475369,"ECCENTRICITY":0.00058048,"INCLINATION":57.2051,"RA_OF_ASC_NODE":344.7173,"ARG_OF_PERICENTER":306.7848,"MEAN_ANOMALY":53.1689,"EPHEMERIS_TYPE":0,"CLASSIFICATION_TYPE":"U","NORAD_CAT_ID":43564,"ELEMENT_SET_NO":999,"REV_AT_EPOCH":4731,"BSTAR":0,"MEAN_MOTION_DOT":-1.05e-6,"MEAN_MOTION_DDOT":0},{"OBJECT_NAME":"GSAT0222 (GALILEO 26)","OBJECT_ID":"2018-060B","EPOCH":"2026-02-24T15:50:30.088608","MEAN_MOTION":1.70474973,"ECCENTRICITY":0.0004435,"INCLINATION":57.2093,"RA_OF_ASC_NODE":344.8256,"ARG_OF_PERICENTER":285.482,"MEAN_ANOMALY":74.4799,"EPHEMERIS_TYPE":0,"CLASSIFICATION_TYPE":"U","NORAD_CAT_ID":43565,"ELEMENT_SET_NO":999,"REV_AT_EPOCH":4729,"BSTAR":0,"MEAN_MOTION_DOT":-9.2e-7,"MEAN_MOTION_DDOT":0},{"OBJECT_NAME":"GSAT0219 (GALILEO 23)","OBJECT_ID":"2018-060C","EPOCH":"2026-02-22T12:50:02.521824","MEAN_MOTION":1.70475208,"ECCENTRICITY":0.0005774,"INCLINATION":57.2094,"RA_OF_ASC_NODE":344.8846,"ARG_OF_PERICENTER":308.6957,"MEAN_ANOMALY":51.2673,"EPHEMERIS_TYPE":0,"CLASSIFICATION_TYPE":"U","NORAD_CAT_ID":43566,"ELEMENT_SET_NO":999,"REV_AT_EPOCH":4723,"BSTAR":0,"MEAN_MOTION_DOT":-8.2e-7,"MEAN_MOTION_DDOT":0},{"OBJECT_NAME":"GSAT0220 (GALILEO 24)","OBJECT_ID":"2018-060D","EPOCH":"2026-02-27T10:45:41.962176","MEAN_MOTION":1.70475159,"ECCENTRICITY":0.0005301,"INCLINATION":57.2075,"RA_OF_ASC_NODE":344.7516,"ARG_OF_PERICENTER":308.5821,"MEAN_ANOMALY":51.3768,"EPHEMERIS_TYPE":0,"CLASSIFICATION_TYPE":"U","NORAD_CAT_ID":43567,"ELEMENT_SET_NO":999,"REV_AT_EPOCH":4730,"BSTAR":0,"MEAN_MOTION_DOT":-1.02e-6,"MEAN_MOTION_DDOT":0},{"OBJECT_NAME":"BEIDOU-3 M13","OBJECT_ID":"2018-072A","EPOCH":"2026-03-04T19:54:34.683840","MEAN_MOTION":1.86230808,"ECCENTRICITY":0.0008916,"INCLINATION":56.5333,"RA_OF_ASC_NODE":66.1018,"ARG_OF_PERICENTER":307.8246,"MEAN_ANOMALY":52.1164,"EPHEMERIS_TYPE":0,"CLASSIFICATION_TYPE":"U","NORAD_CAT_ID":43622,"ELEMENT_SET_NO":999,"REV_AT_EPOCH":5071,"BSTAR":0,"MEAN_MOTION_DOT":-2.9e-7,"MEAN_MOTION_DDOT":0},{"OBJECT_NAME":"BEIDOU-3 M14","OBJECT_ID":"2018-072B","EPOCH":"2026-03-04T16:40:50.255904","MEAN_MOTION":1.86230841,"ECCENTRICITY":0.0006376,"INCLINATION":56.535,"RA_OF_ASC_NODE":66.1003,"ARG_OF_PERICENTER":328.815,"MEAN_ANOMALY":31.1695,"EPHEMERIS_TYPE":0,"CLASSIFICATION_TYPE":"U","NORAD_CAT_ID":43623,"ELEMENT_SET_NO":999,"REV_AT_EPOCH":5070,"BSTAR":0,"MEAN_MOTION_DOT":-2.8e-7,"MEAN_MOTION_DDOT":0},{"OBJECT_NAME":"GPS BIII-1","OBJECT_ID":"2018-109A","EPOCH":"2026-03-05T06:09:31.445280","MEAN_MOTION":2.0055687,"ECCENTRICITY":0.00379286,"INCLINATION":55.6156,"RA_OF_ASC_NODE":96.2856,"ARG_OF_PERICENTER":198.3444,"MEAN_ANOMALY":123.9005,"EPHEMERIS_TYPE":0,"CLASSIFICATION_TYPE":"U","NORAD_CAT_ID":43873,"ELEMENT_SET_NO":999,"REV_AT_EPOCH":5298,"BSTAR":0,"MEAN_MOTION_DOT":6.0e-8,"MEAN_MOTION_DDOT":0},{"OBJECT_NAME":"METEOR-M2 2","OBJECT_ID":"2019-038A","EPOCH":"2026-03-05T06:42:03.386304","MEAN_MOTION":14.2433356,"ECCENTRICITY":0.00011573,"INCLINATION":98.9077,"RA_OF_ASC_NODE":50.0697,"ARG_OF_PERICENTER":12.0564,"MEAN_ANOMALY":348.0642,"EPHEMERIS_TYPE":0,"CLASSIFICATION_TYPE":"U","NORAD_CAT_ID":44387,"ELEMENT_SET_NO":999,"REV_AT_EPOCH":34650,"BSTAR":0.00029051328,"MEAN_MOTION_DOT":6.25e-6,"MEAN_MOTION_DDOT":0},{"OBJECT_NAME":"GPS BIII-2","OBJECT_ID":"2019-056A","EPOCH":"2026-03-05T04:27:29.371968","MEAN_MOTION":2.00568377,"ECCENTRICITY":0.00580362,"INCLINATION":55.6843,"RA_OF_ASC_NODE":335.2783,"ARG_OF_PERICENTER":198.12,"MEAN_ANOMALY":333.2871,"EPHEMERIS_TYPE":0,"CLASSIFICATION_TYPE":"U","NORAD_CAT_ID":44506,"ELEMENT_SET_NO":999,"REV_AT_EPOCH":4798,"BSTAR":0,"MEAN_MOTION_DOT":-1.0e-6,"MEAN_MOTION_DDOT":0},{"OBJECT_NAME":"BEIDOU-3 M24","OBJECT_ID":"2019-061A","EPOCH":"2026-03-03T23:58:45.264000","MEAN_MOTION":1.86228942,"ECCENTRICITY":0.00084886,"INCLINATION":54.3992,"RA_OF_ASC_NODE":186.2751,"ARG_OF_PERICENTER":19.7399,"MEAN_ANOMALY":340.2521,"EPHEMERIS_TYPE":0,"CLASSIFICATION_TYPE":"U","NORAD_CAT_ID":44542,"ELEMENT_SET_NO":999,"REV_AT_EPOCH":4383,"BSTAR":0,"MEAN_MOTION_DOT":-1.0e-7,"MEAN_MOTION_DDOT":0},{"OBJECT_NAME":"BEIDOU-3 M23","OBJECT_ID":"2019-061B","EPOCH":"2026-03-03T07:40:19.297056","MEAN_MOTION":1.8622717,"ECCENTRICITY":0.00050771,"INCLINATION":54.3976,"RA_OF_ASC_NODE":186.266,"ARG_OF_PERICENTER":14.221,"MEAN_ANOMALY":162.4807,"EPHEMERIS_TYPE":0,"CLASSIFICATION_TYPE":"U","NORAD_CAT_ID":44543,"ELEMENT_SET_NO":999,"REV_AT_EPOCH":4382,"BSTAR":0,"MEAN_MOTION_DOT":-1.8e-7,"MEAN_MOTION_DDOT":0},{"OBJECT_NAME":"BEIDOU-3 M22","OBJECT_ID":"2019-078A","EPOCH":"2026-03-04T09:00:38.803968","MEAN_MOTION":1.86231851,"ECCENTRICITY":0.0007273,"INCLINATION":54.0307,"RA_OF_ASC_NODE":303.5169,"ARG_OF_PERICENTER":35.6258,"MEAN_ANOMALY":324.4804,"EPHEMERIS_TYPE":0,"CLASSIFICATION_TYPE":"U","NORAD_CAT_ID":44793,"ELEMENT_SET_NO":999,"REV_AT_EPOCH":4269,"BSTAR":0,"MEAN_MOTION_DOT":-6.0e-7,"MEAN_MOTION_DDOT":0},{"OBJECT_NAME":"BEIDOU-3 M21","OBJECT_ID":"2019-078B","EPOCH":"2026-03-03T23:28:24.953376","MEAN_MOTION":1.86227541,"ECCENTRICITY":0.00059118,"INCLINATION":54.0042,"RA_OF_ASC_NODE":303.4937,"ARG_OF_PERICENTER":39.9322,"MEAN_ANOMALY":320.1697,"EPHEMERIS_TYPE":0,"CLASSIFICATION_TYPE":"U","NORAD_CAT_ID":44794,"ELEMENT_SET_NO":999,"REV_AT_EPOCH":4269,"BSTAR":0,"MEAN_MOTION_DOT":-5.8e-7,"MEAN_MOTION_DDOT":0},{"OBJECT_NAME":"ELEKTRO-L 3","OBJECT_ID":"2019-095A","EPOCH":"2026-03-05T04:21:38.795328","MEAN_MOTION":1.00270283,"ECCENTRICITY":0.00016737,"INCLINATION":0.0443,"RA_OF_ASC_NODE":305.7093,"ARG_OF_PERICENTER":25.0794,"MEAN_ANOMALY":333.4886,"EPHEMERIS_TYPE":0,"CLASSIFICATION_TYPE":"U","NORAD_CAT_ID":44903,"ELEMENT_SET_NO":999,"REV_AT_EPOCH":2266,"BSTAR":0,"MEAN_MOTION_DOT":-1.04e-6,"MEAN_MOTION_DDOT":0},{"OBJECT_NAME":"GPS BIII-3","OBJECT_ID":"2020-041A","EPOCH":"2026-03-05T06:27:12.231648","MEAN_MOTION":2.00560688,"ECCENTRICITY":0.00613991,"INCLINATION":56.6063,"RA_OF_ASC_NODE":32.9753,"ARG_OF_PERICENTER":205.2468,"MEAN_ANOMALY":328.3125,"EPHEMERIS_TYPE":0,"CLASSIFICATION_TYPE":"U","NORAD_CAT_ID":45854,"ELEMENT_SET_NO":999,"REV_AT_EPOCH":4195,"BSTAR":0,"MEAN_MOTION_DOT":-8.3e-7,"MEAN_MOTION_DDOT":0}]
